STARLINK-35454          
1 66236U 25245C   25310.58334491 -.00003503  11075-4  00000+0 0  9998
2 66236  53.1535 143.6990 0000579  79.2479  39.6840 15.91893018  2296
STARLINK-35557          
1 66237U 25245D   25310.58334491 -.00003503  11075-4  00000+0 0  9999
2 66237  53.1535 143.6990 0000579  79.2479  39.6840 15.91893018  2297
STARLINK-35556          
1 66238U 25245E   25310.58334491 -.00003503  11075-4  00000+0 0  9990
2 66238  53.1535 143.6990 0000579  79.2479  39.6840 15.91893018  2298
STARLINK-35554          
1 66239U 25245F   25310.58334491 -.00003503  11075-4  00000+0 0  9991
2 66239  53.1535 143.6990 0000579  79.2479  39.6840 15.91893018  2299
STARLINK-35546          
1 66240U 25245G   25310.58334491 -.00003503  11075-4  00000+0 0  9993
2 66240  53.1535 143.6990 0000579  79.2479  39.6840 15.91893018  2291
STARLINK-35497          
1 66241U 25245H   25310.58334491 -.00003503  11075-4  00000+0 0  9994
2 66241  53.1535 143.6990 0000579  79.2479  39.6840 15.91893018  2292
STARLINK-35480          
1 66242U 25245J   25310.58334491 -.00003503  11075-4  00000+0 0  9995
2 66242  53.1535 143.6990 0000579  79.2479  39.6840 15.91893018  2293
STARLINK-35495          
1 66243U 25245K   25310.58334491 -.00003503  11075-4  00000+0 0  9996
2 66243  53.1535 143.6990 0000579  79.2479  39.6840 15.91893018  2294
STARLINK-35517          
1 66244U 25245L   25310.58334491 -.00003503  11075-4  00000+0 0  9997
2 66244  53.1535 143.6990 0000579  79.2479  39.6840 15.91893018  2295
STARLINK-35503          
1 66245U 25245M   25310.58334491 -.00003503  11075-4  00000+0 0  9998
2 66245  53.1535 143.6990 0000579  79.2479  39.6840 15.91893018  2296
STARLINK-35434          
1 66246U 25245N   25310.58334491 -.00003503  11075-4  00000+0 0  9999
2 66246  53.1535 143.6990 0000579  79.2479  39.6840 15.91893018  2297
STARLINK-35481          
1 66247U 25245P   25310.58334491 -.00003503  11075-4  00000+0 0  9990
2 66247  53.1535 143.6990 0000579  79.2479  39.6840 15.91893018  2298
